CTC1_L_00219016-03
1 10062U 25802KA  26075.70032407  .00000000  00000+0  00000-0 0  9998
2 10062  40.0000 180.0000 0000000   0.0000   0.0000 13.29142335    18
CTC1_L_00219016-04
1 10063U 23958GZ  26075.70032407  .00000000  00000+0  00000-0 0  9999
2 10063  40.0000 180.0000 0000000   0.0000  90.0000 13.29142335    18
CTC1_L_00219017-01
1 10064U 22580KJ  26075.70032407  .00000000  00000+0  00000-0 0  9990
2 10064  40.0000 192.0000 0000000   0.0000 192.0000 13.29142335    15
CTC1_L_00219017-02
1 10065U 23853BG  26075.70032407  .00000000  00000+0  00000-0 0  9995
2 10065  40.0000 192.0000 0000000   0.0000 282.0000 13.29142335    16
CTC1_L_00219017-03
1 10066U 25773UZ  26075.70032407  .00000000  00000+0  00000-0 0  9999
2 10066  40.0000 192.0000 0000000   0.0000  12.0000 13.29142335    18
CTC1_L_00219017-04
1 10067U 25397CU  26075.70032407  .00000000  00000+0  00000-0 0  9992
2 10067  40.0000 192.0000 0000000   0.0000 102.0000 13.29142335    19
CTC1_L_00219018-01
1 10068U 22294MQ  26075.70032407  .00000000  00000+0  00000-0 0  9996
2 10068  40.0000 204.0000 0000000   0.0000 204.0000 13.29142335    17
CTC1_L_00219018-02
1 10069U 22370OF  26075.70032407  .00000000  00000+0  00000-0 0  9992
2 10069  40.0000 204.0000 0000000   0.0000 294.0000 13.29142335    17
CTC1_L_00219018-03
1 10070U 24217HR  26075.70032407  .00000000  00000+0  00000-0 0  9996
2 10070  40.0000 204.0000 0000000   0.0000  24.0000 13.29142335    10
CTC1_L_00219018-04
1 10071U 24752DQ  26075.70032407  .00000000  00000+0  00000-0 0  9991
2 10071  40.0000 204.0000 0000000   0.0000 114.0000 13.29142335    11
CTC1_L_00219019-01
1 10072U 23964FJ  26075.70032407  .00000000  00000+0  00000-0 0  9996
2 10072  40.0000 216.0000 0000000   0.0000 216.0000 13.29142335    18
CTC1_L_00219019-02
1 10073U 22051EG  26075.70032407  .00000000  00000+0  00000-0 0  9993
2 10073  40.0000 216.0000 0000000   0.0000 306.0000 13.29142335    19
CTC1_L_00219019-03
1 10074U 23650XI  26075.70032407  .00000000  00000+0  00000-0 0  9990
2 10074  40.0000 216.0000 0000000   0.0000  36.0000 13.29142335    10
CTC1_L_00219019-04
1 10075U 23035PX  26075.70032407  .00000000  00000+0  00000-0 0  9998
2 10075  40.0000 216.0000 0000000   0.0000 126.0000 13.29142335    11
CTC1_L_00219020-01
1 10076U 23243IR  26075.70032407  .00000000  00000+0  00000-0 0  9990
2 10076  40.0000 228.0000 0000000   0.0000 228.0000 13.29142335    18
CTC1_L_00219020-02
1 10077U 24724ID  26075.70032407  .00000000  00000+0  00000-0 0  9996
2 10077  40.0000 228.0000 0000000   0.0000 318.0000 13.29142335    19
CTC1_L_00219020-03
1 10078U 26091NL  26075.70032407  .00000000  00000+0  00000-0 0  9996
2 10078  40.0000 228.0000 0000000   0.0000  48.0000 13.29142335    10
CTC1_L_00219020-04
1 10079U 26239CD  26075.70032407  .00000000  00000+0  00000-0 0  9991
2 10079  40.0000 228.0000 0000000   0.0000 138.0000 13.29142335    11
CTC1_L_00219021-01
1 10080U 26368GD  26075.70032407  .00000000  00000+0  00000-0 0  9996
2 10080  40.0000 240.0000 0000000   0.0000 240.0000 13.29142335    11
CTC1_L_00219021-02
1 10081U 24526WK  26075.70032407  .00000000  00000+0  00000-0 0  9991
2 10081  40.0000 240.0000 0000000   0.0000 330.0000 13.29142335    12
CTC1_L_00219021-03
1 10082U 24727GK  26075.70032407  .00000000  00000+0  00000-0 0  9995
2 10082  40.0000 240.0000 0000000   0.0000  60.0000 13.29142335    13
CTC1_L_00219021-04
1 10083U 22314AX  26075.70032407  .00000000  00000+0  00000-0 0  9996
2 10083  40.0000 240.0000 0000000   0.0000 150.0000 13.29142335    14
CTC1_L_00219022-01
1 10084U 22200BT  26075.70032407  .00000000  00000+0  00000-0 0  9991
2 10084  40.0000 252.0000 0000000   0.0000 252.0000 13.29142335    11
CTC1_L_00219022-02
1 10085U 25438WV  26075.70032407  .00000000  00000+0  00000-0 0  9998
2 10085  40.0000 252.0000 0000000   0.0000 342.0000 13.29142335    12
CTC1_L_00219022-03
1 10086U 23711XP  26075.70032407  .00000000  00000+0  00000-0 0  9991
2 10086  40.0000 252.0000 0000000   0.0000  72.0000 13.29142335    13
CTC1_L_00219022-04
1 10087U 23776XO  26075.70032407  .00000000  00000+0  00000-0 0  9993
2 10087  40.0000 252.0000 0000000   0.0000 162.0000 13.29142335    14
CTC1_L_00219023-01
1 10088U 24311EQ  26075.70032407  .00000000  00000+0  00000-0 0  9990
2 10088  40.0000 264.0000 0000000   0.0000 264.0000 13.29142335    11
CTC1_L_00219023-02
1 10089U 23650YB  26075.70032407  .00000000  00000+0  00000-0 0  9996
2 10089  40.0000 264.0000 0000000   0.0000 354.0000 13.29142335    12
CTC1_L_00219023-03
1 10090U 26023DW  26075.70032407  .00000000  00000+0  00000-0 0  9995
2 10090  40.0000 264.0000 0000000   0.0000  84.0000 13.29142335    14
CTC1_L_00219023-04
1 10091U 22999BN  26075.70032407  .00000000  00000+0  00000-0 0  9994
2 10091  40.0000 264.0000 0000000   0.0000 174.0000 13.29142335    15
CTC1_L_00219024-01
1 10092U 24789XA  26075.70032407  .00000000  00000+0  00000-0 0  9994
2 10092  40.0000 276.0000 0000000   0.0000 276.0000 13.29142335    12
CTC1_L_00219024-02
1 10093U 26990GL  26075.70032407  .00000000  00000+0  00000-0 0  9991
2 10093  40.0000 276.0000 0000000   0.0000   6.0000 13.29142335    14
CTC1_L_00219024-03
1 10094U 26557CK  26075.70032407  .00000000  00000+0  00000-0 0  9991
2 10094  40.0000 276.0000 0000000   0.0000  96.0000 13.29142335    14
CTC1_L_00219024-04
1 10095U 25861N   26075.70032407  .00000000  00000+0  00000-0 0  9999
2 10095  40.0000 276.0000 0000000   0.0000 186.0000 13.29142335    15
CTC1_L_00219025-01
1 10096U 23449BX  26075.70032407  .00000000  00000+0  00000-0 0  9990
2 10096  40.0000 288.0000 0000000   0.0000 288.0000 13.29142335    12
CTC1_L_00219025-02
1 10097U 24807TU  26075.70032407  .00000000  00000+0  00000-0 0  9990
2 10097  40.0000 288.0000 0000000   0.0000  18.0000 13.29142335    14
CTC1_L_00219025-03
1 10098U 22395FS  26075.70032407  .00000000  00000+0  00000-0 0  9991
2 10098  40.0000 288.0000 0000000   0.0000 108.0000 13.29142335    15
CTC1_L_00219025-04
1 10099U 22130DG  26075.70032407  .00000000  00000+0  00000-0 0  9999
2 10099  40.0000 288.0000 0000000   0.0000 198.0000 13.29142335    15
CTC1_L_00219026-01
1 10100U 26656CH  26075.70032407  .00000000  00000+0  00000-0 0  9999
2 10100  40.0000 300.0000 0000000   0.0000 300.0000 13.29142335    18
CTC1_L_00219026-02
1 10101U 25559ZH  26075.70032407  .00000000  00000+0  00000-0 0  9991
2 10101  40.0000 300.0000 0000000   0.0000  30.0000 13.29142335    19
CTC1_L_00219026-03
1 10102U 23832CD  26075.70032407  .00000000  00000+0  00000-0 0  9994
2 10102  40.0000 300.0000 0000000   0.0000 120.0000 13.29142335    10
CTC1_L_00219026-04
1 10103U 26975UD  26075.70032407  .00000000  00000+0  00000-0 0  9996
2 10103  40.0000 300.0000 0000000   0.0000 210.0000 13.29142335    11
CTC1_L_00219027-01
1 10104U 23979FE  26075.70032407  .00000000  00000+0  00000-0 0  9998
2 10104  40.0000 312.0000 0000000   0.0000 312.0000 13.29142335    18
CTC1_L_00219027-02
1 10105U 23875IW  26075.70032407  .00000000  00000+0  00000-0 0  9994
2 10105  40.0000 312.0000 0000000   0.0000  42.0000 13.29142335    19
CTC1_L_00219027-03
1 10106U 25019XK  26075.70032407  .00000000  00000+0  00000-0 0  9997
2 10106  40.0000 312.0000 0000000   0.0000 132.0000 13.29142335    10
CTC1_L_00219027-04
1 10107U 24627NC  26075.70032407  .00000000  00000+0  00000-0 0  9992
2 10107  40.0000 312.0000 0000000   0.0000 222.0000 13.29142335    11
CTC1_L_00219028-01
1 10108U 25011ZT  26075.70032407  .00000000  00000+0  00000-0 0  9991
2 10108  40.0000 324.0000 0000000   0.0000 324.0000 13.29142335    18
CTC1_L_00219028-02
1 10109U 22153VI  26075.70032407  .00000000  00000+0  00000-0 0  9996
2 10109  40.0000 324.0000 0000000   0.0000  54.0000 13.29142335    19
CTC1_L_00219028-03
1 10110U 25908NL  26075.70032407  .00000000  00000+0  00000-0 0  9999
2 10110  40.0000 324.0000 0000000   0.0000 144.0000 13.29142335    11
CTC1_L_00219028-04
1 10111U 26944UA  26075.70032407  .00000000  00000+0  00000-0 0  9991
2 10111  40.0000 324.0000 0000000   0.0000 234.0000 13.29142335    12
CTC1_L_00219029-01
1 10112U 26608AR  26075.70032407  .00000000  00000+0  00000-0 0  9999
2 10112  40.0000 336.0000 0000000   0.0000 336.0000 13.29142335    19
CTC1_L_00219029-02
1 10113U 26565SG  26075.70032407  .00000000  00000+0  00000-0 0  9992
2 10113  40.0000 336.0000 0000000   0.0000  66.0000 13.29142335    10
CTC1_L_00219029-03
1 10114U 25909VA  26075.70032407  .00000000  00000+0  00000-0 0  9994
2 10114  40.0000 336.0000 0000000   0.0000 156.0000 13.29142335    11
CTC1_L_00219029-04
1 10115U 24038FC  26075.70032407  .00000000  00000+0  00000-0 0  9997
2 10115  40.0000 336.0000 0000000   0.0000 246.0000 13.29142335    12
CTC1_L_00219030-01
1 10116U 23082PJ  26075.70032407  .00000000  00000+0  00000-0 0  9996
2 10116  40.0000 348.0000 0000000   0.0000 348.0000 13.29142335    19
CTC1_L_00219030-02
1 10117U 23093WR  26075.70032407  .00000000  00000+0  00000-0 0  9999
2 10117  40.0000 348.0000 0000000   0.0000  78.0000 13.29142335    10
CTC1_L_00219030-03
1 10118U 22497LX  26075.70032407  .00000000  00000+0  00000-0 0  9997
2 10118  40.0000 348.0000 0000000   0.0000 168.0000 13.29142335    11
CTC1_L_00219030-04
1 10119U 24310ZZ  26075.70032407  .00000000  00000+0  00000-0 0  9994
2 10119  40.0000 348.0000 0000000   0.0000 258.0000 13.29142335    12
